<?xml version="1.0" encoding="UTF-8"?>
<gpx version="1.1" creator="allrunabout course-map builder" xmlns="http://www.topografix.com/GPX/1/1">
  <metadata>
    <name>busan-international-marathon-2026</name>
    <desc>reconstructed · 대회 공식 홈페이지 코스안내(Full Course)의 '구간별 상세 레이아웃(Milestones)'이 경유지를 글로 적어두고 있다 — '벡스코 출격 → 요트경기장 → 동백섬사거리 → 운촌삼거리 → 송당삼거리 → 올림픽교차로 진입', '올림픽교차로를 거쳐 광안대교 상판 진입 → 용당램프 구간', '용당램프 하행 → 대연고가교 하부 도로 통과 → 동명오거리 진입', '동명오거리 직진 → 부산항대교 진입', '영도 진입 후 남항대교 통과 → 충무동사거리 반환점 터치', '남항대교 재통과 → 부산항대교 방향으로 진입하여 동명오거리로 리턴', '동명오거리 → 용당램프 진입 → 광안대교 상판을 통해 다시 해운대/센텀 방면'. 이 서술에 나온 지점만 사실로 취해 OSM 도로망 위에서 새로 이었다. 공식 코스맵 이미지와 PDF는 따라 그리지 않았다.</desc>
    <time>2026-08-31T00:00:00Z</time>
    <copyright author="OpenStreetMap contributors">
      <license>https://opendatacommons.org/licenses/odbl/</license>
    </copyright>
  </metadata>
  <trk>
    <name>busan-international-marathon-2026</name>
    <trkseg>
      <trkpt lat="35.168293" lon="129.134738"/>
      <trkpt lat="35.168162" lon="129.134508"/>
      <trkpt lat="35.167684" lon="129.133642"/>
      <trkpt lat="35.166519" lon="129.134551"/>
      <trkpt lat="35.166593" lon="129.134812"/>
      <trkpt lat="35.166835" lon="129.135372"/>
      <trkpt lat="35.166952" lon="129.135685"/>
      <trkpt lat="35.167114" lon="129.135992"/>
      <trkpt lat="35.167258" lon="129.136253"/>
      <trkpt lat="35.16746" lon="129.136619"/>
      <trkpt lat="35.167913" lon="129.137494"/>
      <trkpt lat="35.167963" lon="129.137588"/>
      <trkpt lat="35.1681" lon="129.137856"/>
      <trkpt lat="35.168149" lon="129.137951"/>
      <trkpt lat="35.168347" lon="129.138343"/>
      <trkpt lat="35.168393" lon="129.138478"/>
      <trkpt lat="35.168399" lon="129.138527"/>
      <trkpt lat="35.16839" lon="129.13858"/>
      <trkpt lat="35.168369" lon="129.138649"/>
      <trkpt lat="35.168342" lon="129.138713"/>
      <trkpt lat="35.168298" lon="129.138782"/>
      <trkpt lat="35.168248" lon="129.138829"/>
      <trkpt lat="35.168166" lon="129.138855"/>
      <trkpt lat="35.168291" lon="129.138969"/>
      <trkpt lat="35.168335" lon="129.139049"/>
      <trkpt lat="35.168346" lon="129.139108"/>
      <trkpt lat="35.168335" lon="129.139159"/>
      <trkpt lat="35.168302" lon="129.139205"/>
      <trkpt lat="35.168247" lon="129.139221"/>
      <trkpt lat="35.168137" lon="129.13921"/>
      <trkpt lat="35.167937" lon="129.139142"/>
      <trkpt lat="35.167778" lon="129.139118"/>
      <trkpt lat="35.16758" lon="129.13908"/>
      <trkpt lat="35.166656" lon="129.13862"/>
      <trkpt lat="35.166536" lon="129.138564"/>
      <trkpt lat="35.166438" lon="129.138519"/>
      <trkpt lat="35.166343" lon="129.138528"/>
      <trkpt lat="35.166257" lon="129.138563"/>
      <trkpt lat="35.1662" lon="129.138613"/>
      <trkpt lat="35.166132" lon="129.138673"/>
      <trkpt lat="35.16486" lon="129.139654"/>
      <trkpt lat="35.164372" lon="129.14006"/>
      <trkpt lat="35.164338" lon="129.140016"/>
      <trkpt lat="35.164317" lon="129.140042"/>
      <trkpt lat="35.164108" lon="129.140393"/>
      <trkpt lat="35.164062" lon="129.140348"/>
      <trkpt lat="35.163474" lon="129.139776"/>
      <trkpt lat="35.163292" lon="129.139916"/>
      <trkpt lat="35.163124" lon="129.140083"/>
      <trkpt lat="35.162842" lon="129.14045"/>
      <trkpt lat="35.162402" lon="129.140435"/>
      <trkpt lat="35.162341" lon="129.140502"/>
      <trkpt lat="35.162225" lon="129.140355"/>
      <trkpt lat="35.16213" lon="129.140237"/>
      <trkpt lat="35.161916" lon="129.139974"/>
      <trkpt lat="35.161716" lon="129.139723"/>
      <trkpt lat="35.161392" lon="129.139318"/>
      <trkpt lat="35.161319" lon="129.139237"/>
      <trkpt lat="35.161302" lon="129.139226"/>
      <trkpt lat="35.161279" lon="129.139224"/>
      <trkpt lat="35.161269" lon="129.139226"/>
      <trkpt lat="35.161255" lon="129.139233"/>
      <trkpt lat="35.160954" lon="129.139587"/>
      <trkpt lat="35.160386" lon="129.140255"/>
      <trkpt lat="35.160117" lon="129.140563"/>
      <trkpt lat="35.159297" lon="129.141499"/>
      <trkpt lat="35.158767" lon="129.142094"/>
      <trkpt lat="35.158626" lon="129.14225"/>
      <trkpt lat="35.158451" lon="129.142293"/>
      <trkpt lat="35.158363" lon="129.142331"/>
      <trkpt lat="35.158363" lon="129.142502"/>
      <trkpt lat="35.15835" lon="129.142609"/>
      <trkpt lat="35.158113" lon="129.142593"/>
      <trkpt lat="35.158004" lon="129.142624"/>
      <trkpt lat="35.158006" lon="129.142751"/>
      <trkpt lat="35.157934" lon="129.142727"/>
      <trkpt lat="35.157835" lon="129.142829"/>
      <trkpt lat="35.158023" lon="129.143089"/>
      <trkpt lat="35.158153" lon="129.143215"/>
      <trkpt lat="35.158136" lon="129.143237"/>
      <trkpt lat="35.158128" lon="129.143266"/>
      <trkpt lat="35.15813" lon="129.143296"/>
      <trkpt lat="35.158141" lon="129.143324"/>
      <trkpt lat="35.15816" lon="129.143343"/>
      <trkpt lat="35.158185" lon="129.143352"/>
      <trkpt lat="35.157964" lon="129.144169"/>
      <trkpt lat="35.157844" lon="129.144592"/>
      <trkpt lat="35.157507" lon="129.145776"/>
      <trkpt lat="35.157444" lon="129.145997"/>
      <trkpt lat="35.157218" lon="129.146792"/>
      <trkpt lat="35.156939" lon="129.147774"/>
      <trkpt lat="35.156795" lon="129.148384"/>
      <trkpt lat="35.156796" lon="129.148437"/>
      <trkpt lat="35.15679" lon="129.148487"/>
      <trkpt lat="35.156792" lon="129.148536"/>
      <trkpt lat="35.156807" lon="129.148581"/>
      <trkpt lat="35.156824" lon="129.148622"/>
      <trkpt lat="35.156856" lon="129.148652"/>
      <trkpt lat="35.156892" lon="129.148675"/>
      <trkpt lat="35.156922" lon="129.148693"/>
      <trkpt lat="35.156949" lon="129.148713"/>
      <trkpt lat="35.156982" lon="129.148741"/>
      <trkpt lat="35.157002" lon="129.148787"/>
      <trkpt lat="35.157004" lon="129.148838"/>
      <trkpt lat="35.156989" lon="129.148885"/>
      <trkpt lat="35.156967" lon="129.148919"/>
      <trkpt lat="35.156959" lon="129.148996"/>
      <trkpt lat="35.156956" lon="129.14912"/>
      <trkpt lat="35.156967" lon="129.149243"/>
      <trkpt lat="35.15719" lon="129.150167"/>
      <trkpt lat="35.157348" lon="129.150782"/>
      <trkpt lat="35.157402" lon="129.150891"/>
      <trkpt lat="35.157494" lon="129.150997"/>
      <trkpt lat="35.157597" lon="129.151079"/>
      <trkpt lat="35.157696" lon="129.151161"/>
      <trkpt lat="35.157767" lon="129.151235"/>
      <trkpt lat="35.157851" lon="129.151567"/>
      <trkpt lat="35.157985" lon="129.15208"/>
      <trkpt lat="35.15802" lon="129.152215"/>
      <trkpt lat="35.158038" lon="129.152342"/>
      <trkpt lat="35.158084" lon="129.152672"/>
      <trkpt lat="35.15815" lon="129.153191"/>
      <trkpt lat="35.158187" lon="129.15338"/>
      <trkpt lat="35.158249" lon="129.153622"/>
      <trkpt lat="35.158356" lon="129.154035"/>
      <trkpt lat="35.158356" lon="129.154035"/>
      <trkpt lat="35.158356" lon="129.154035"/>
      <trkpt lat="35.158249" lon="129.153622"/>
      <trkpt lat="35.158187" lon="129.15338"/>
      <trkpt lat="35.15815" lon="129.153191"/>
      <trkpt lat="35.158084" lon="129.152672"/>
      <trkpt lat="35.158117" lon="129.152435"/>
      <trkpt lat="35.158128" lon="129.152377"/>
      <trkpt lat="35.158147" lon="129.152325"/>
      <trkpt lat="35.158176" lon="129.152266"/>
      <trkpt lat="35.158193" lon="129.152235"/>
      <trkpt lat="35.158216" lon="129.152192"/>
      <trkpt lat="35.158446" lon="129.151873"/>
      <trkpt lat="35.158923" lon="129.151414"/>
      <trkpt lat="35.159083" lon="129.151192"/>
      <trkpt lat="35.15973" lon="129.15013"/>
      <trkpt lat="35.159809" lon="129.15"/>
      <trkpt lat="35.160208" lon="129.149301"/>
      <trkpt lat="35.160492" lon="129.148845"/>
      <trkpt lat="35.161169" lon="129.148037"/>
      <trkpt lat="35.161316" lon="129.147834"/>
      <trkpt lat="35.161387" lon="129.147694"/>
      <trkpt lat="35.161816" lon="129.146906"/>
      <trkpt lat="35.161939" lon="129.146745"/>
      <trkpt lat="35.16246" lon="129.145727"/>
      <trkpt lat="35.162936" lon="129.144826"/>
      <trkpt lat="35.163084" lon="129.144468"/>
      <trkpt lat="35.163393" lon="129.143868"/>
      <trkpt lat="35.16354" lon="129.143603"/>
      <trkpt lat="35.163702" lon="129.143431"/>
      <trkpt lat="35.164115" lon="129.142798"/>
      <trkpt lat="35.16435" lon="129.14254"/>
      <trkpt lat="35.164577" lon="129.142341"/>
      <trkpt lat="35.164989" lon="129.142011"/>
      <trkpt lat="35.165432" lon="129.141708"/>
      <trkpt lat="35.165545" lon="129.141519"/>
      <trkpt lat="35.16561" lon="129.141413"/>
      <trkpt lat="35.165645" lon="129.141181"/>
      <trkpt lat="35.165339" lon="129.140586"/>
      <trkpt lat="35.165259" lon="129.140431"/>
      <trkpt lat="35.16486" lon="129.139654"/>
      <trkpt lat="35.166132" lon="129.138673"/>
      <trkpt lat="35.1662" lon="129.138613"/>
      <trkpt lat="35.166257" lon="129.138563"/>
      <trkpt lat="35.166251" lon="129.138477"/>
      <trkpt lat="35.166195" lon="129.138373"/>
      <trkpt lat="35.165932" lon="129.138151"/>
      <trkpt lat="35.165763" lon="129.137947"/>
      <trkpt lat="35.165609" lon="129.137678"/>
      <trkpt lat="35.165457" lon="129.137396"/>
      <trkpt lat="35.165368" lon="129.137178"/>
      <trkpt lat="35.165318" lon="129.136863"/>
      <trkpt lat="35.165595" lon="129.13741"/>
      <trkpt lat="35.165781" lon="129.137737"/>
      <trkpt lat="35.165971" lon="129.137967"/>
      <trkpt lat="35.166216" lon="129.138212"/>
      <trkpt lat="35.166523" lon="129.138384"/>
      <trkpt lat="35.166785" lon="129.138514"/>
      <trkpt lat="35.167159" lon="129.138708"/>
      <trkpt lat="35.167585" lon="129.138912"/>
      <trkpt lat="35.167888" lon="129.139035"/>
      <trkpt lat="35.168046" lon="129.13908"/>
      <trkpt lat="35.168256" lon="129.139135"/>
      <trkpt lat="35.168387" lon="129.13912"/>
      <trkpt lat="35.168196" lon="129.139049"/>
      <trkpt lat="35.167851" lon="129.1389"/>
      <trkpt lat="35.166806" lon="129.13842"/>
      <trkpt lat="35.166444" lon="129.138243"/>
      <trkpt lat="35.166218" lon="129.138078"/>
      <trkpt lat="35.165976" lon="129.137835"/>
      <trkpt lat="35.165875" lon="129.137723"/>
      <trkpt lat="35.165636" lon="129.137365"/>
      <trkpt lat="35.165222" lon="129.13657"/>
      <trkpt lat="35.164891" lon="129.135925"/>
      <trkpt lat="35.164515" lon="129.135201"/>
      <trkpt lat="35.164231" lon="129.134656"/>
      <trkpt lat="35.164054" lon="129.134389"/>
      <trkpt lat="35.163858" lon="129.13414"/>
      <trkpt lat="35.163651" lon="129.133949"/>
      <trkpt lat="35.163414" lon="129.133821"/>
      <trkpt lat="35.16321" lon="129.133745"/>
      <trkpt lat="35.162977" lon="129.133689"/>
      <trkpt lat="35.162764" lon="129.133673"/>
      <trkpt lat="35.162515" lon="129.133703"/>
      <trkpt lat="35.162267" lon="129.133753"/>
      <trkpt lat="35.161978" lon="129.133841"/>
      <trkpt lat="35.161667" lon="129.13396"/>
      <trkpt lat="35.161462" lon="129.134021"/>
      <trkpt lat="35.161134" lon="129.134156"/>
      <trkpt lat="35.160774" lon="129.134366"/>
      <trkpt lat="35.160358" lon="129.134652"/>
      <trkpt lat="35.159761" lon="129.135066"/>
      <trkpt lat="35.159119" lon="129.135602"/>
      <trkpt lat="35.158601" lon="129.136018"/>
      <trkpt lat="35.157888" lon="129.136514"/>
      <trkpt lat="35.157328" lon="129.136777"/>
      <trkpt lat="35.156754" lon="129.13697"/>
      <trkpt lat="35.156231" lon="129.137026"/>
      <trkpt lat="35.155645" lon="129.137001"/>
      <trkpt lat="35.155196" lon="129.136907"/>
      <trkpt lat="35.154983" lon="129.136824"/>
      <trkpt lat="35.154712" lon="129.136705"/>
      <trkpt lat="35.154346" lon="129.136515"/>
      <trkpt lat="35.154152" lon="129.136415"/>
      <trkpt lat="35.153672" lon="129.136"/>
      <trkpt lat="35.152851" lon="129.135231"/>
      <trkpt lat="35.151365" lon="129.133787"/>
      <trkpt lat="35.149954" lon="129.132468"/>
      <trkpt lat="35.148918" lon="129.131489"/>
      <trkpt lat="35.145691" lon="129.128368"/>
      <trkpt lat="35.142519" lon="129.125301"/>
      <trkpt lat="35.141154" lon="129.123982"/>
      <trkpt lat="35.140519" lon="129.123378"/>
      <trkpt lat="35.140185" lon="129.123059"/>
      <trkpt lat="35.140024" lon="129.122904"/>
      <trkpt lat="35.139703" lon="129.122596"/>
      <trkpt lat="35.139242" lon="129.122153"/>
      <trkpt lat="35.138499" lon="129.121454"/>
      <trkpt lat="35.138217" lon="129.121162"/>
      <trkpt lat="35.138028" lon="129.120959"/>
      <trkpt lat="35.137865" lon="129.120773"/>
      <trkpt lat="35.137707" lon="129.120575"/>
      <trkpt lat="35.137574" lon="129.120393"/>
      <trkpt lat="35.13745" lon="129.120209"/>
      <trkpt lat="35.137312" lon="129.119976"/>
      <trkpt lat="35.13721" lon="129.119776"/>
      <trkpt lat="35.137093" lon="129.119527"/>
      <trkpt lat="35.136972" lon="129.119237"/>
      <trkpt lat="35.13688" lon="129.118964"/>
      <trkpt lat="35.136841" lon="129.11883"/>
      <trkpt lat="35.136805" lon="129.118701"/>
      <trkpt lat="35.136753" lon="129.118492"/>
      <trkpt lat="35.136728" lon="129.118379"/>
      <trkpt lat="35.136707" lon="129.118281"/>
      <trkpt lat="35.136649" lon="129.11796"/>
      <trkpt lat="35.136588" lon="129.117528"/>
      <trkpt lat="35.136391" lon="129.115869"/>
      <trkpt lat="35.136233" lon="129.11468"/>
      <trkpt lat="35.136039" lon="129.113159"/>
      <trkpt lat="35.135912" lon="129.112249"/>
      <trkpt lat="35.135846" lon="129.111943"/>
      <trkpt lat="35.13573" lon="129.111553"/>
      <trkpt lat="35.135591" lon="129.111248"/>
      <trkpt lat="35.135457" lon="129.111009"/>
      <trkpt lat="35.135232" lon="129.110682"/>
      <trkpt lat="35.135004" lon="129.110426"/>
      <trkpt lat="35.134353" lon="129.109851"/>
      <trkpt lat="35.133001" lon="129.108688"/>
      <trkpt lat="35.132405" lon="129.108177"/>
      <trkpt lat="35.132178" lon="129.10798"/>
      <trkpt lat="35.131903" lon="129.107729"/>
      <trkpt lat="35.131582" lon="129.107432"/>
      <trkpt lat="35.131358" lon="129.107237"/>
      <trkpt lat="35.130105" lon="129.106133"/>
      <trkpt lat="35.129737" lon="129.105704"/>
      <trkpt lat="35.129539" lon="129.105393"/>
      <trkpt lat="35.129265" lon="129.104952"/>
      <trkpt lat="35.128665" lon="129.104012"/>
      <trkpt lat="35.128309" lon="129.103461"/>
      <trkpt lat="35.127963" lon="129.102923"/>
      <trkpt lat="35.127644" lon="129.102409"/>
      <trkpt lat="35.127318" lon="129.101958"/>
      <trkpt lat="35.126997" lon="129.101651"/>
      <trkpt lat="35.126172" lon="129.101043"/>
      <trkpt lat="35.125946" lon="129.100963"/>
      <trkpt lat="35.125466" lon="129.100624"/>
      <trkpt lat="35.124601" lon="129.100039"/>
      <trkpt lat="35.123413" lon="129.099577"/>
      <trkpt lat="35.123329" lon="129.099546"/>
      <trkpt lat="35.123215" lon="129.099501"/>
      <trkpt lat="35.123169" lon="129.099484"/>
      <trkpt lat="35.121869" lon="129.09904"/>
      <trkpt lat="35.12183" lon="129.099017"/>
      <trkpt lat="35.121592" lon="129.098915"/>
      <trkpt lat="35.121296" lon="129.098781"/>
      <trkpt lat="35.121214" lon="129.09885"/>
      <trkpt lat="35.121035" lon="129.099026"/>
      <trkpt lat="35.120917" lon="129.099178"/>
      <trkpt lat="35.120877" lon="129.099254"/>
      <trkpt lat="35.120819" lon="129.099423"/>
      <trkpt lat="35.120531" lon="129.10044"/>
      <trkpt lat="35.120447" lon="129.100532"/>
      <trkpt lat="35.120344" lon="129.100569"/>
      <trkpt lat="35.119925" lon="129.100397"/>
      <trkpt lat="35.119889" lon="129.100382"/>
      <trkpt lat="35.119925" lon="129.100397"/>
      <trkpt lat="35.120344" lon="129.100569"/>
      <trkpt lat="35.120447" lon="129.100532"/>
      <trkpt lat="35.120531" lon="129.10044"/>
      <trkpt lat="35.120819" lon="129.099423"/>
      <trkpt lat="35.120877" lon="129.099254"/>
      <trkpt lat="35.120917" lon="129.099178"/>
      <trkpt lat="35.120951" lon="129.099018"/>
      <trkpt lat="35.120958" lon="129.098803"/>
      <trkpt lat="35.120926" lon="129.098687"/>
      <trkpt lat="35.120867" lon="129.098581"/>
      <trkpt lat="35.120743" lon="129.09844"/>
      <trkpt lat="35.120959" lon="129.098585"/>
      <trkpt lat="35.121166" lon="129.098708"/>
      <trkpt lat="35.121296" lon="129.098781"/>
      <trkpt lat="35.121416" lon="129.098674"/>
      <trkpt lat="35.121342" lon="129.098639"/>
      <trkpt lat="35.121117" lon="129.098517"/>
      <trkpt lat="35.120735" lon="129.098251"/>
      <trkpt lat="35.120662" lon="129.098195"/>
      <trkpt lat="35.120538" lon="129.098095"/>
      <trkpt lat="35.120031" lon="129.09766"/>
      <trkpt lat="35.11994" lon="129.09759"/>
      <trkpt lat="35.118888" lon="129.096733"/>
      <trkpt lat="35.118748" lon="129.096607"/>
      <trkpt lat="35.118558" lon="129.096445"/>
      <trkpt lat="35.118246" lon="129.096214"/>
      <trkpt lat="35.117729" lon="129.095702"/>
      <trkpt lat="35.117441" lon="129.095428"/>
      <trkpt lat="35.117318" lon="129.095324"/>
      <trkpt lat="35.117198" lon="129.095221"/>
      <trkpt lat="35.116972" lon="129.095091"/>
      <trkpt lat="35.116795" lon="129.095017"/>
      <trkpt lat="35.116508" lon="129.094945"/>
      <trkpt lat="35.11628" lon="129.09491"/>
      <trkpt lat="35.116162" lon="129.094893"/>
      <trkpt lat="35.115959" lon="129.094911"/>
      <trkpt lat="35.115821" lon="129.094939"/>
      <trkpt lat="35.115666" lon="129.094979"/>
      <trkpt lat="35.115472" lon="129.095038"/>
      <trkpt lat="35.115402" lon="129.095062"/>
      <trkpt lat="35.114778" lon="129.095306"/>
      <trkpt lat="35.114546" lon="129.095386"/>
      <trkpt lat="35.113867" lon="129.095621"/>
      <trkpt lat="35.113243" lon="129.095816"/>
      <trkpt lat="35.112926" lon="129.095818"/>
      <trkpt lat="35.112438" lon="129.095709"/>
      <trkpt lat="35.111841" lon="129.095368"/>
      <trkpt lat="35.11168" lon="129.095227"/>
      <trkpt lat="35.111314" lon="129.094813"/>
      <trkpt lat="35.111085" lon="129.09455"/>
      <trkpt lat="35.110817" lon="129.094224"/>
      <trkpt lat="35.110242" lon="129.093494"/>
      <trkpt lat="35.109847" lon="129.092973"/>
      <trkpt lat="35.109597" lon="129.092462"/>
      <trkpt lat="35.109366" lon="129.091775"/>
      <trkpt lat="35.108726" lon="129.082647"/>
      <trkpt lat="35.108605" lon="129.079935"/>
      <trkpt lat="35.108758" lon="129.076717"/>
      <trkpt lat="35.108811" lon="129.076159"/>
      <trkpt lat="35.108916" lon="129.075767"/>
      <trkpt lat="35.1095" lon="129.074362"/>
      <trkpt lat="35.109802" lon="129.073743"/>
      <trkpt lat="35.10995" lon="129.073411"/>
      <trkpt lat="35.110075" lon="129.07303"/>
      <trkpt lat="35.110148" lon="129.07276"/>
      <trkpt lat="35.110211" lon="129.07236"/>
      <trkpt lat="35.110238" lon="129.07209"/>
      <trkpt lat="35.110258" lon="129.071658"/>
      <trkpt lat="35.110245" lon="129.07128"/>
      <trkpt lat="35.11021" lon="129.070946"/>
      <trkpt lat="35.110108" lon="129.070388"/>
      <trkpt lat="35.109997" lon="129.070047"/>
      <trkpt lat="35.109882" lon="129.069755"/>
      <trkpt lat="35.10977" lon="129.069521"/>
      <trkpt lat="35.109557" lon="129.06915"/>
      <trkpt lat="35.109371" lon="129.068894"/>
      <trkpt lat="35.109345" lon="129.068859"/>
      <trkpt lat="35.109104" lon="129.068565"/>
      <trkpt lat="35.108056" lon="129.067391"/>
      <trkpt lat="35.10506" lon="129.06403"/>
      <trkpt lat="35.102777" lon="129.061469"/>
      <trkpt lat="35.102648" lon="129.061255"/>
      <trkpt lat="35.102564" lon="129.061143"/>
      <trkpt lat="35.102426" lon="129.060987"/>
      <trkpt lat="35.102207" lon="129.060726"/>
      <trkpt lat="35.102038" lon="129.060494"/>
      <trkpt lat="35.099528" lon="129.057546"/>
      <trkpt lat="35.099044" lon="129.056941"/>
      <trkpt lat="35.098298" lon="129.056003"/>
      <trkpt lat="35.09814" lon="129.055885"/>
      <trkpt lat="35.097956" lon="129.055689"/>
      <trkpt lat="35.097391" lon="129.055213"/>
      <trkpt lat="35.096861" lon="129.054761"/>
      <trkpt lat="35.096631" lon="129.054486"/>
      <trkpt lat="35.095744" lon="129.053214"/>
      <trkpt lat="35.095584" lon="129.052861"/>
      <trkpt lat="35.094914" lon="129.050665"/>
      <trkpt lat="35.094776" lon="129.050093"/>
      <trkpt lat="35.094764" lon="129.049429"/>
      <trkpt lat="35.094778" lon="129.04889"/>
      <trkpt lat="35.094758" lon="129.04843"/>
      <trkpt lat="35.0947" lon="129.047968"/>
      <trkpt lat="35.094183" lon="129.046876"/>
      <trkpt lat="35.093719" lon="129.045886"/>
      <trkpt lat="35.093605" lon="129.045641"/>
      <trkpt lat="35.093403" lon="129.045344"/>
      <trkpt lat="35.093314" lon="129.045213"/>
      <trkpt lat="35.093234" lon="129.045095"/>
      <trkpt lat="35.093148" lon="129.04502"/>
      <trkpt lat="35.092789" lon="129.044712"/>
      <trkpt lat="35.09266" lon="129.044618"/>
      <trkpt lat="35.092116" lon="129.04432"/>
      <trkpt lat="35.091668" lon="129.044075"/>
      <trkpt lat="35.090761" lon="129.043591"/>
      <trkpt lat="35.089876" lon="129.043096"/>
      <trkpt lat="35.088202" lon="129.042185"/>
      <trkpt lat="35.087059" lon="129.041563"/>
      <trkpt lat="35.086239" lon="129.041118"/>
      <trkpt lat="35.085938" lon="129.040955"/>
      <trkpt lat="35.085693" lon="129.040823"/>
      <trkpt lat="35.085495" lon="129.040717"/>
      <trkpt lat="35.085693" lon="129.040823"/>
      <trkpt lat="35.085883" lon="129.040765"/>
      <trkpt lat="35.085976" lon="129.040706"/>
      <trkpt lat="35.086063" lon="129.040623"/>
      <trkpt lat="35.086116" lon="129.040466"/>
      <trkpt lat="35.086371" lon="129.039785"/>
      <trkpt lat="35.088634" lon="129.038723"/>
      <trkpt lat="35.089615" lon="129.038262"/>
      <trkpt lat="35.090062" lon="129.038513"/>
      <trkpt lat="35.090675" lon="129.038858"/>
      <trkpt lat="35.091281" lon="129.039198"/>
      <trkpt lat="35.09174" lon="129.039456"/>
      <trkpt lat="35.091957" lon="129.039572"/>
      <trkpt lat="35.092114" lon="129.0395"/>
      <trkpt lat="35.092293" lon="129.03941"/>
      <trkpt lat="35.092424" lon="129.039065"/>
      <trkpt lat="35.092704" lon="129.038318"/>
      <trkpt lat="35.093027" lon="129.03745"/>
      <trkpt lat="35.093083" lon="129.037373"/>
      <trkpt lat="35.093165" lon="129.037319"/>
      <trkpt lat="35.093552" lon="129.037175"/>
      <trkpt lat="35.093956" lon="129.037018"/>
      <trkpt lat="35.094287" lon="129.036907"/>
      <trkpt lat="35.094587" lon="129.036788"/>
      <trkpt lat="35.095543" lon="129.036465"/>
      <trkpt lat="35.095605" lon="129.036445"/>
      <trkpt lat="35.096283" lon="129.03621"/>
      <trkpt lat="35.09647" lon="129.036143"/>
      <trkpt lat="35.096598" lon="129.036048"/>
      <trkpt lat="35.097113" lon="129.035874"/>
      <trkpt lat="35.097538" lon="129.035735"/>
      <trkpt lat="35.09763" lon="129.035659"/>
      <trkpt lat="35.097706" lon="129.035621"/>
      <trkpt lat="35.097769" lon="129.035569"/>
      <trkpt lat="35.097784" lon="129.035502"/>
      <trkpt lat="35.097787" lon="129.035237"/>
      <trkpt lat="35.097795" lon="129.035106"/>
      <trkpt lat="35.097808" lon="129.034908"/>
      <trkpt lat="35.097825" lon="129.034774"/>
      <trkpt lat="35.09771" lon="129.034288"/>
      <trkpt lat="35.097641" lon="129.033997"/>
      <trkpt lat="35.097614" lon="129.033831"/>
      <trkpt lat="35.0976" lon="129.033734"/>
      <trkpt lat="35.097593" lon="129.033568"/>
      <trkpt lat="35.097596" lon="129.033432"/>
      <trkpt lat="35.097599" lon="129.03335"/>
      <trkpt lat="35.097583" lon="129.033217"/>
      <trkpt lat="35.09757" lon="129.032996"/>
      <trkpt lat="35.097538" lon="129.032096"/>
      <trkpt lat="35.097478" lon="129.030735"/>
      <trkpt lat="35.097225" lon="129.029551"/>
      <trkpt lat="35.096971" lon="129.028468"/>
      <trkpt lat="35.096735" lon="129.027401"/>
      <trkpt lat="35.096624" lon="129.026971"/>
      <trkpt lat="35.096421" lon="129.026209"/>
      <trkpt lat="35.096316" lon="129.025894"/>
      <trkpt lat="35.09621" lon="129.025579"/>
      <trkpt lat="35.096283" lon="129.025072"/>
      <trkpt lat="35.096396" lon="129.024463"/>
      <trkpt lat="35.096498" lon="129.023928"/>
      <trkpt lat="35.096516" lon="129.023764"/>
      <trkpt lat="35.096538" lon="129.023602"/>
      <trkpt lat="35.096516" lon="129.023764"/>
      <trkpt lat="35.096498" lon="129.023928"/>
      <trkpt lat="35.09653" lon="129.024159"/>
      <trkpt lat="35.096557" lon="129.024305"/>
      <trkpt lat="35.096598" lon="129.024442"/>
      <trkpt lat="35.096681" lon="129.024677"/>
      <trkpt lat="35.096898" lon="129.025234"/>
      <trkpt lat="35.096926" lon="129.025304"/>
      <trkpt lat="35.096975" lon="129.025434"/>
      <trkpt lat="35.097073" lon="129.0257"/>
      <trkpt lat="35.097258" lon="129.026383"/>
      <trkpt lat="35.09735" lon="129.026728"/>
      <trkpt lat="35.097451" lon="129.02715"/>
      <trkpt lat="35.097555" lon="129.027698"/>
      <trkpt lat="35.097666" lon="129.028058"/>
      <trkpt lat="35.097724" lon="129.028243"/>
      <trkpt lat="35.097704" lon="129.028389"/>
      <trkpt lat="35.097918" lon="129.029315"/>
      <trkpt lat="35.09793" lon="129.029371"/>
      <trkpt lat="35.097933" lon="129.029383"/>
      <trkpt lat="35.098124" lon="129.030149"/>
      <trkpt lat="35.098179" lon="129.030379"/>
      <trkpt lat="35.098205" lon="129.030538"/>
      <trkpt lat="35.098205" lon="129.030642"/>
      <trkpt lat="35.098197" lon="129.030726"/>
      <trkpt lat="35.098167" lon="129.030838"/>
      <trkpt lat="35.097898" lon="129.031931"/>
      <trkpt lat="35.097854" lon="129.032095"/>
      <trkpt lat="35.097806" lon="129.032303"/>
      <trkpt lat="35.097629" lon="129.033118"/>
      <trkpt lat="35.097605" lon="129.033259"/>
      <trkpt lat="35.097599" lon="129.03335"/>
      <trkpt lat="35.097596" lon="129.033432"/>
      <trkpt lat="35.097593" lon="129.033568"/>
      <trkpt lat="35.0976" lon="129.033734"/>
      <trkpt lat="35.097614" lon="129.033831"/>
      <trkpt lat="35.097641" lon="129.033997"/>
      <trkpt lat="35.09771" lon="129.034288"/>
      <trkpt lat="35.097825" lon="129.034774"/>
      <trkpt lat="35.097808" lon="129.034908"/>
      <trkpt lat="35.097795" lon="129.035106"/>
      <trkpt lat="35.097787" lon="129.035237"/>
      <trkpt lat="35.097784" lon="129.035502"/>
      <trkpt lat="35.097769" lon="129.035569"/>
      <trkpt lat="35.097706" lon="129.035621"/>
      <trkpt lat="35.09763" lon="129.035659"/>
      <trkpt lat="35.097538" lon="129.035735"/>
      <trkpt lat="35.097113" lon="129.035874"/>
      <trkpt lat="35.096598" lon="129.036048"/>
      <trkpt lat="35.09647" lon="129.036143"/>
      <trkpt lat="35.096283" lon="129.03621"/>
      <trkpt lat="35.095605" lon="129.036445"/>
      <trkpt lat="35.095543" lon="129.036465"/>
      <trkpt lat="35.094587" lon="129.036788"/>
      <trkpt lat="35.094287" lon="129.036907"/>
      <trkpt lat="35.093956" lon="129.037018"/>
      <trkpt lat="35.093552" lon="129.037175"/>
      <trkpt lat="35.093165" lon="129.037319"/>
      <trkpt lat="35.093083" lon="129.037373"/>
      <trkpt lat="35.093027" lon="129.03745"/>
      <trkpt lat="35.092704" lon="129.038318"/>
      <trkpt lat="35.092424" lon="129.039065"/>
      <trkpt lat="35.092293" lon="129.03941"/>
      <trkpt lat="35.092114" lon="129.0395"/>
      <trkpt lat="35.091957" lon="129.039572"/>
      <trkpt lat="35.09174" lon="129.039456"/>
      <trkpt lat="35.091281" lon="129.039198"/>
      <trkpt lat="35.090675" lon="129.038858"/>
      <trkpt lat="35.090062" lon="129.038513"/>
      <trkpt lat="35.089615" lon="129.038262"/>
      <trkpt lat="35.088634" lon="129.038723"/>
      <trkpt lat="35.086371" lon="129.039785"/>
      <trkpt lat="35.086116" lon="129.040466"/>
      <trkpt lat="35.086063" lon="129.040623"/>
      <trkpt lat="35.085976" lon="129.040706"/>
      <trkpt lat="35.085883" lon="129.040765"/>
      <trkpt lat="35.085693" lon="129.040823"/>
      <trkpt lat="35.085495" lon="129.040717"/>
      <trkpt lat="35.085693" lon="129.040823"/>
      <trkpt lat="35.085938" lon="129.040955"/>
      <trkpt lat="35.086239" lon="129.041118"/>
      <trkpt lat="35.087059" lon="129.041563"/>
      <trkpt lat="35.088202" lon="129.042185"/>
      <trkpt lat="35.089876" lon="129.043096"/>
      <trkpt lat="35.090761" lon="129.043591"/>
      <trkpt lat="35.091668" lon="129.044075"/>
      <trkpt lat="35.092116" lon="129.04432"/>
      <trkpt lat="35.09266" lon="129.044618"/>
      <trkpt lat="35.092789" lon="129.044712"/>
      <trkpt lat="35.093148" lon="129.04502"/>
      <trkpt lat="35.093234" lon="129.045095"/>
      <trkpt lat="35.093314" lon="129.045213"/>
      <trkpt lat="35.093403" lon="129.045344"/>
      <trkpt lat="35.093605" lon="129.045641"/>
      <trkpt lat="35.093719" lon="129.045886"/>
      <trkpt lat="35.094183" lon="129.046876"/>
      <trkpt lat="35.0947" lon="129.047968"/>
      <trkpt lat="35.094758" lon="129.04843"/>
      <trkpt lat="35.094778" lon="129.04889"/>
      <trkpt lat="35.094764" lon="129.049429"/>
      <trkpt lat="35.094776" lon="129.050093"/>
      <trkpt lat="35.094914" lon="129.050665"/>
      <trkpt lat="35.095584" lon="129.052861"/>
      <trkpt lat="35.095744" lon="129.053214"/>
      <trkpt lat="35.096631" lon="129.054486"/>
      <trkpt lat="35.096861" lon="129.054761"/>
      <trkpt lat="35.097391" lon="129.055213"/>
      <trkpt lat="35.097956" lon="129.055689"/>
      <trkpt lat="35.09814" lon="129.055885"/>
      <trkpt lat="35.098298" lon="129.056003"/>
      <trkpt lat="35.099044" lon="129.056941"/>
      <trkpt lat="35.099528" lon="129.057546"/>
      <trkpt lat="35.102038" lon="129.060494"/>
      <trkpt lat="35.102207" lon="129.060726"/>
      <trkpt lat="35.102426" lon="129.060987"/>
      <trkpt lat="35.102564" lon="129.061143"/>
      <trkpt lat="35.102648" lon="129.061255"/>
      <trkpt lat="35.102777" lon="129.061469"/>
      <trkpt lat="35.10506" lon="129.06403"/>
      <trkpt lat="35.108056" lon="129.067391"/>
      <trkpt lat="35.109104" lon="129.068565"/>
      <trkpt lat="35.109345" lon="129.068859"/>
      <trkpt lat="35.109371" lon="129.068894"/>
      <trkpt lat="35.109557" lon="129.06915"/>
      <trkpt lat="35.10977" lon="129.069521"/>
      <trkpt lat="35.109882" lon="129.069755"/>
      <trkpt lat="35.109997" lon="129.070047"/>
      <trkpt lat="35.110108" lon="129.070388"/>
      <trkpt lat="35.11021" lon="129.070946"/>
      <trkpt lat="35.110245" lon="129.07128"/>
      <trkpt lat="35.110258" lon="129.071658"/>
      <trkpt lat="35.110238" lon="129.07209"/>
      <trkpt lat="35.110211" lon="129.07236"/>
      <trkpt lat="35.110148" lon="129.07276"/>
      <trkpt lat="35.110075" lon="129.07303"/>
      <trkpt lat="35.10995" lon="129.073411"/>
      <trkpt lat="35.109802" lon="129.073743"/>
      <trkpt lat="35.1095" lon="129.074362"/>
      <trkpt lat="35.108916" lon="129.075767"/>
      <trkpt lat="35.108811" lon="129.076159"/>
      <trkpt lat="35.108758" lon="129.076717"/>
      <trkpt lat="35.108605" lon="129.079935"/>
      <trkpt lat="35.108726" lon="129.082647"/>
      <trkpt lat="35.109366" lon="129.091775"/>
      <trkpt lat="35.109597" lon="129.092462"/>
      <trkpt lat="35.109847" lon="129.092973"/>
      <trkpt lat="35.110242" lon="129.093494"/>
      <trkpt lat="35.110817" lon="129.094224"/>
      <trkpt lat="35.111085" lon="129.09455"/>
      <trkpt lat="35.111314" lon="129.094813"/>
      <trkpt lat="35.11168" lon="129.095227"/>
      <trkpt lat="35.111841" lon="129.095368"/>
      <trkpt lat="35.112438" lon="129.095709"/>
      <trkpt lat="35.112926" lon="129.095818"/>
      <trkpt lat="35.113243" lon="129.095816"/>
      <trkpt lat="35.113867" lon="129.095621"/>
      <trkpt lat="35.114546" lon="129.095386"/>
      <trkpt lat="35.114778" lon="129.095306"/>
      <trkpt lat="35.115402" lon="129.095062"/>
      <trkpt lat="35.115472" lon="129.095038"/>
      <trkpt lat="35.115666" lon="129.094979"/>
      <trkpt lat="35.115821" lon="129.094939"/>
      <trkpt lat="35.115959" lon="129.094911"/>
      <trkpt lat="35.116162" lon="129.094893"/>
      <trkpt lat="35.11628" lon="129.09491"/>
      <trkpt lat="35.116508" lon="129.094945"/>
      <trkpt lat="35.116795" lon="129.095017"/>
      <trkpt lat="35.116972" lon="129.095091"/>
      <trkpt lat="35.117198" lon="129.095221"/>
      <trkpt lat="35.117318" lon="129.095324"/>
      <trkpt lat="35.117441" lon="129.095428"/>
      <trkpt lat="35.117729" lon="129.095702"/>
      <trkpt lat="35.118246" lon="129.096214"/>
      <trkpt lat="35.118558" lon="129.096445"/>
      <trkpt lat="35.118748" lon="129.096607"/>
      <trkpt lat="35.118888" lon="129.096733"/>
      <trkpt lat="35.11994" lon="129.09759"/>
      <trkpt lat="35.120031" lon="129.09766"/>
      <trkpt lat="35.120538" lon="129.098095"/>
      <trkpt lat="35.120662" lon="129.098195"/>
      <trkpt lat="35.120735" lon="129.098251"/>
      <trkpt lat="35.121117" lon="129.098517"/>
      <trkpt lat="35.121342" lon="129.098639"/>
      <trkpt lat="35.121416" lon="129.098674"/>
      <trkpt lat="35.121296" lon="129.098781"/>
      <trkpt lat="35.121214" lon="129.09885"/>
      <trkpt lat="35.121035" lon="129.099026"/>
      <trkpt lat="35.120917" lon="129.099178"/>
      <trkpt lat="35.120877" lon="129.099254"/>
      <trkpt lat="35.120819" lon="129.099423"/>
      <trkpt lat="35.120531" lon="129.10044"/>
      <trkpt lat="35.120447" lon="129.100532"/>
      <trkpt lat="35.120344" lon="129.100569"/>
      <trkpt lat="35.119925" lon="129.100397"/>
      <trkpt lat="35.119889" lon="129.100382"/>
      <trkpt lat="35.119925" lon="129.100397"/>
      <trkpt lat="35.120344" lon="129.100569"/>
      <trkpt lat="35.120447" lon="129.100532"/>
      <trkpt lat="35.120531" lon="129.10044"/>
      <trkpt lat="35.120819" lon="129.099423"/>
      <trkpt lat="35.120877" lon="129.099254"/>
      <trkpt lat="35.120917" lon="129.099178"/>
      <trkpt lat="35.121041" lon="129.099135"/>
      <trkpt lat="35.12183" lon="129.099017"/>
      <trkpt lat="35.121869" lon="129.09904"/>
      <trkpt lat="35.123169" lon="129.099484"/>
      <trkpt lat="35.123215" lon="129.099501"/>
      <trkpt lat="35.123329" lon="129.099546"/>
      <trkpt lat="35.123413" lon="129.099577"/>
      <trkpt lat="35.124601" lon="129.100039"/>
      <trkpt lat="35.125466" lon="129.100624"/>
      <trkpt lat="35.125946" lon="129.100963"/>
      <trkpt lat="35.126172" lon="129.101043"/>
      <trkpt lat="35.126997" lon="129.101651"/>
      <trkpt lat="35.127318" lon="129.101958"/>
      <trkpt lat="35.127644" lon="129.102409"/>
      <trkpt lat="35.127963" lon="129.102923"/>
      <trkpt lat="35.128309" lon="129.103461"/>
      <trkpt lat="35.128665" lon="129.104012"/>
      <trkpt lat="35.129265" lon="129.104952"/>
      <trkpt lat="35.129539" lon="129.105393"/>
      <trkpt lat="35.129737" lon="129.105704"/>
      <trkpt lat="35.130105" lon="129.106133"/>
      <trkpt lat="35.131358" lon="129.107237"/>
      <trkpt lat="35.131582" lon="129.107432"/>
      <trkpt lat="35.131903" lon="129.107729"/>
      <trkpt lat="35.132178" lon="129.10798"/>
      <trkpt lat="35.132405" lon="129.108177"/>
      <trkpt lat="35.133001" lon="129.108688"/>
      <trkpt lat="35.134353" lon="129.109851"/>
      <trkpt lat="35.135004" lon="129.110426"/>
      <trkpt lat="35.135232" lon="129.110682"/>
      <trkpt lat="35.135457" lon="129.111009"/>
      <trkpt lat="35.135591" lon="129.111248"/>
      <trkpt lat="35.13573" lon="129.111553"/>
      <trkpt lat="35.135846" lon="129.111943"/>
      <trkpt lat="35.135912" lon="129.112249"/>
      <trkpt lat="35.136039" lon="129.113159"/>
      <trkpt lat="35.136233" lon="129.11468"/>
      <trkpt lat="35.136391" lon="129.115869"/>
      <trkpt lat="35.136588" lon="129.117528"/>
      <trkpt lat="35.136649" lon="129.11796"/>
      <trkpt lat="35.136707" lon="129.118281"/>
      <trkpt lat="35.136728" lon="129.118379"/>
      <trkpt lat="35.136753" lon="129.118492"/>
      <trkpt lat="35.136805" lon="129.118701"/>
      <trkpt lat="35.136841" lon="129.11883"/>
      <trkpt lat="35.13688" lon="129.118964"/>
      <trkpt lat="35.136972" lon="129.119237"/>
      <trkpt lat="35.137093" lon="129.119527"/>
      <trkpt lat="35.13721" lon="129.119776"/>
      <trkpt lat="35.137312" lon="129.119976"/>
      <trkpt lat="35.13745" lon="129.120209"/>
      <trkpt lat="35.137574" lon="129.120393"/>
      <trkpt lat="35.137707" lon="129.120575"/>
      <trkpt lat="35.137865" lon="129.120773"/>
      <trkpt lat="35.138028" lon="129.120959"/>
      <trkpt lat="35.138217" lon="129.121162"/>
      <trkpt lat="35.138499" lon="129.121454"/>
      <trkpt lat="35.139242" lon="129.122153"/>
      <trkpt lat="35.139703" lon="129.122596"/>
      <trkpt lat="35.140024" lon="129.122904"/>
      <trkpt lat="35.140185" lon="129.123059"/>
      <trkpt lat="35.140519" lon="129.123378"/>
      <trkpt lat="35.141154" lon="129.123982"/>
      <trkpt lat="35.142519" lon="129.125301"/>
      <trkpt lat="35.145691" lon="129.128368"/>
      <trkpt lat="35.148918" lon="129.131489"/>
      <trkpt lat="35.149954" lon="129.132468"/>
      <trkpt lat="35.151365" lon="129.133787"/>
      <trkpt lat="35.152851" lon="129.135231"/>
      <trkpt lat="35.153672" lon="129.136"/>
      <trkpt lat="35.154152" lon="129.136415"/>
      <trkpt lat="35.154346" lon="129.136515"/>
      <trkpt lat="35.154712" lon="129.136705"/>
      <trkpt lat="35.154983" lon="129.136824"/>
      <trkpt lat="35.155196" lon="129.136907"/>
      <trkpt lat="35.155645" lon="129.137001"/>
      <trkpt lat="35.156231" lon="129.137026"/>
      <trkpt lat="35.156754" lon="129.13697"/>
      <trkpt lat="35.157328" lon="129.136777"/>
      <trkpt lat="35.157888" lon="129.136514"/>
      <trkpt lat="35.158601" lon="129.136018"/>
      <trkpt lat="35.159119" lon="129.135602"/>
      <trkpt lat="35.159761" lon="129.135066"/>
      <trkpt lat="35.160358" lon="129.134652"/>
      <trkpt lat="35.160774" lon="129.134366"/>
      <trkpt lat="35.161134" lon="129.134156"/>
      <trkpt lat="35.161462" lon="129.134021"/>
      <trkpt lat="35.161667" lon="129.13396"/>
      <trkpt lat="35.161978" lon="129.133841"/>
      <trkpt lat="35.162267" lon="129.133753"/>
      <trkpt lat="35.162515" lon="129.133703"/>
      <trkpt lat="35.162764" lon="129.133673"/>
      <trkpt lat="35.162977" lon="129.133689"/>
      <trkpt lat="35.16321" lon="129.133745"/>
      <trkpt lat="35.163414" lon="129.133821"/>
      <trkpt lat="35.163651" lon="129.133949"/>
      <trkpt lat="35.163858" lon="129.13414"/>
      <trkpt lat="35.164054" lon="129.134389"/>
      <trkpt lat="35.164231" lon="129.134656"/>
      <trkpt lat="35.164515" lon="129.135201"/>
      <trkpt lat="35.164891" lon="129.135925"/>
      <trkpt lat="35.165222" lon="129.13657"/>
      <trkpt lat="35.165636" lon="129.137365"/>
      <trkpt lat="35.165875" lon="129.137723"/>
      <trkpt lat="35.165976" lon="129.137835"/>
      <trkpt lat="35.166218" lon="129.138078"/>
      <trkpt lat="35.166444" lon="129.138243"/>
      <trkpt lat="35.166806" lon="129.13842"/>
      <trkpt lat="35.167851" lon="129.1389"/>
      <trkpt lat="35.168196" lon="129.139049"/>
      <trkpt lat="35.168387" lon="129.13912"/>
      <trkpt lat="35.168256" lon="129.139135"/>
      <trkpt lat="35.168046" lon="129.13908"/>
      <trkpt lat="35.167888" lon="129.139035"/>
      <trkpt lat="35.167585" lon="129.138912"/>
      <trkpt lat="35.167159" lon="129.138708"/>
      <trkpt lat="35.166785" lon="129.138514"/>
      <trkpt lat="35.166523" lon="129.138384"/>
      <trkpt lat="35.166216" lon="129.138212"/>
      <trkpt lat="35.165971" lon="129.137967"/>
      <trkpt lat="35.165781" lon="129.137737"/>
      <trkpt lat="35.165595" lon="129.13741"/>
      <trkpt lat="35.165318" lon="129.136863"/>
      <trkpt lat="35.165368" lon="129.137178"/>
      <trkpt lat="35.165457" lon="129.137396"/>
      <trkpt lat="35.165609" lon="129.137678"/>
      <trkpt lat="35.165763" lon="129.137947"/>
      <trkpt lat="35.165932" lon="129.138151"/>
      <trkpt lat="35.166195" lon="129.138373"/>
      <trkpt lat="35.166438" lon="129.138519"/>
      <trkpt lat="35.166536" lon="129.138564"/>
      <trkpt lat="35.166656" lon="129.13862"/>
      <trkpt lat="35.16758" lon="129.13908"/>
      <trkpt lat="35.167778" lon="129.139118"/>
      <trkpt lat="35.167937" lon="129.139142"/>
      <trkpt lat="35.168137" lon="129.13921"/>
      <trkpt lat="35.168247" lon="129.139221"/>
      <trkpt lat="35.168302" lon="129.139205"/>
      <trkpt lat="35.168335" lon="129.139159"/>
      <trkpt lat="35.168346" lon="129.139108"/>
      <trkpt lat="35.168335" lon="129.139049"/>
      <trkpt lat="35.168291" lon="129.138969"/>
      <trkpt lat="35.168166" lon="129.138855"/>
      <trkpt lat="35.168248" lon="129.138829"/>
      <trkpt lat="35.168298" lon="129.138782"/>
      <trkpt lat="35.168342" lon="129.138713"/>
      <trkpt lat="35.168369" lon="129.138649"/>
      <trkpt lat="35.16839" lon="129.13858"/>
      <trkpt lat="35.168399" lon="129.138527"/>
      <trkpt lat="35.168393" lon="129.138478"/>
      <trkpt lat="35.168347" lon="129.138343"/>
      <trkpt lat="35.168149" lon="129.137951"/>
      <trkpt lat="35.1681" lon="129.137856"/>
      <trkpt lat="35.167963" lon="129.137588"/>
      <trkpt lat="35.167913" lon="129.137494"/>
      <trkpt lat="35.16746" lon="129.136619"/>
      <trkpt lat="35.167258" lon="129.136253"/>
      <trkpt lat="35.167114" lon="129.135992"/>
      <trkpt lat="35.166952" lon="129.135685"/>
      <trkpt lat="35.166835" lon="129.135372"/>
      <trkpt lat="35.166593" lon="129.134812"/>
      <trkpt lat="35.166519" lon="129.134551"/>
      <trkpt lat="35.167684" lon="129.133642"/>
      <trkpt lat="35.168162" lon="129.134508"/>
      <trkpt lat="35.168293" lon="129.134738"/>
    </trkseg>
  </trk>
</gpx>
