<?xml version="1.0" encoding="UTF-8"?>
<gpx version="1.1" creator="allrunabout course-map builder" xmlns="http://www.topografix.com/GPX/1/1">
  <metadata>
    <name>hyundai-forest-run-2026</name>
    <desc>reconstructed · 현대자동차 공식 홈페이지에 텍스트로 적힌 코스 서술 — '여의도 공원 → 여의서로 하단도로 → 여의서로 → 서강대교 → 광흥창역 사거리(반환) → 서강대교 → 여의서로 → 여의서로 하단도로 → 여의도 공원'. 이 서술에 나온 지점만 취해 OSM 보행 도로망 위에서 새로 이었다. 공식 코스맵 이미지는 보지도, 따라 그리지도 않았다.</desc>
    <time>2026-08-23T00:00:00Z</time>
    <copyright author="OpenStreetMap contributors">
      <license>https://opendatacommons.org/licenses/odbl/</license>
    </copyright>
  </metadata>
  <trk>
    <name>hyundai-forest-run-2026</name>
    <trkseg>
      <trkpt lat="37.524729" lon="126.920313"/>
      <trkpt lat="37.525232" lon="126.921128"/>
      <trkpt lat="37.525256" lon="126.921137"/>
      <trkpt lat="37.525488" lon="126.921511"/>
      <trkpt lat="37.525492" lon="126.921511"/>
      <trkpt lat="37.525712" lon="126.921039"/>
      <trkpt lat="37.525788" lon="126.920966"/>
      <trkpt lat="37.525833" lon="126.921099"/>
      <trkpt lat="37.525963" lon="126.921263"/>
      <trkpt lat="37.526032" lon="126.921329"/>
      <trkpt lat="37.52619" lon="126.921481"/>
      <trkpt lat="37.526376" lon="126.921696"/>
      <trkpt lat="37.526462" lon="126.921905"/>
      <trkpt lat="37.526537" lon="126.922228"/>
      <trkpt lat="37.526665" lon="126.922476"/>
      <trkpt lat="37.526827" lon="126.922716"/>
      <trkpt lat="37.526838" lon="126.922643"/>
      <trkpt lat="37.527092" lon="126.922323"/>
      <trkpt lat="37.525878" lon="126.92038"/>
      <trkpt lat="37.525754" lon="126.920183"/>
      <trkpt lat="37.525631" lon="126.919984"/>
      <trkpt lat="37.525469" lon="126.919724"/>
      <trkpt lat="37.52485" lon="126.918732"/>
      <trkpt lat="37.524594" lon="126.918317"/>
      <trkpt lat="37.524449" lon="126.918082"/>
      <trkpt lat="37.524536" lon="126.918005"/>
      <trkpt lat="37.524007" lon="126.91716"/>
      <trkpt lat="37.523576" lon="126.916385"/>
      <trkpt lat="37.523471" lon="126.916313"/>
      <trkpt lat="37.523406" lon="126.916218"/>
      <trkpt lat="37.523425" lon="126.916095"/>
      <trkpt lat="37.523384" lon="126.916008"/>
      <trkpt lat="37.524722" lon="126.915113"/>
      <trkpt lat="37.525165" lon="126.914809"/>
      <trkpt lat="37.526078" lon="126.914182"/>
      <trkpt lat="37.526557" lon="126.913808"/>
      <trkpt lat="37.52678" lon="126.913673"/>
      <trkpt lat="37.526933" lon="126.913581"/>
      <trkpt lat="37.527125" lon="126.913474"/>
      <trkpt lat="37.527424" lon="126.913309"/>
      <trkpt lat="37.527919" lon="126.913109"/>
      <trkpt lat="37.528683" lon="126.91276"/>
      <trkpt lat="37.528996" lon="126.912648"/>
      <trkpt lat="37.529365" lon="126.912503"/>
      <trkpt lat="37.529385" lon="126.912569"/>
      <trkpt lat="37.529504" lon="126.912518"/>
      <trkpt lat="37.529532" lon="126.912615"/>
      <trkpt lat="37.529566" lon="126.912682"/>
      <trkpt lat="37.529732" lon="126.912946"/>
      <trkpt lat="37.530001" lon="126.913374"/>
      <trkpt lat="37.530045" lon="126.913444"/>
      <trkpt lat="37.530185" lon="126.913667"/>
      <trkpt lat="37.530339" lon="126.913915"/>
      <trkpt lat="37.530401" lon="126.91386"/>
      <trkpt lat="37.53042" lon="126.913889"/>
      <trkpt lat="37.530439" lon="126.913896"/>
      <trkpt lat="37.530464" lon="126.913899"/>
      <trkpt lat="37.530506" lon="126.913965"/>
      <trkpt lat="37.530657" lon="126.91382"/>
      <trkpt lat="37.530786" lon="126.913687"/>
      <trkpt lat="37.530838" lon="126.913766"/>
      <trkpt lat="37.530948" lon="126.913916"/>
      <trkpt lat="37.531267" lon="126.914434"/>
      <trkpt lat="37.531529" lon="126.914841"/>
      <trkpt lat="37.531534" lon="126.914848"/>
      <trkpt lat="37.531853" lon="126.915369"/>
      <trkpt lat="37.531869" lon="126.915406"/>
      <trkpt lat="37.531907" lon="126.915491"/>
      <trkpt lat="37.53192" lon="126.915544"/>
      <trkpt lat="37.531859" lon="126.915603"/>
      <trkpt lat="37.531865" lon="126.915665"/>
      <trkpt lat="37.531861" lon="126.915737"/>
      <trkpt lat="37.531709" lon="126.915893"/>
      <trkpt lat="37.531624" lon="126.915983"/>
      <trkpt lat="37.531704" lon="126.916102"/>
      <trkpt lat="37.532241" lon="126.916961"/>
      <trkpt lat="37.532873" lon="126.917961"/>
      <trkpt lat="37.532969" lon="126.918094"/>
      <trkpt lat="37.532944" lon="126.918207"/>
      <trkpt lat="37.532975" lon="126.918224"/>
      <trkpt lat="37.533006" lon="126.918242"/>
      <trkpt lat="37.53301" lon="126.918244"/>
      <trkpt lat="37.53295" lon="126.918451"/>
      <trkpt lat="37.532779" lon="126.919067"/>
      <trkpt lat="37.532525" lon="126.919958"/>
      <trkpt lat="37.53239" lon="126.920456"/>
      <trkpt lat="37.532232" lon="126.921041"/>
      <trkpt lat="37.532185" lon="126.921253"/>
      <trkpt lat="37.532177" lon="126.921434"/>
      <trkpt lat="37.53214" lon="126.921452"/>
      <trkpt lat="37.532157" lon="126.921511"/>
      <trkpt lat="37.53219" lon="126.921601"/>
      <trkpt lat="37.532234" lon="126.921689"/>
      <trkpt lat="37.532315" lon="126.921831"/>
      <trkpt lat="37.53252" lon="126.921959"/>
      <trkpt lat="37.538198" lon="126.925718"/>
      <trkpt lat="37.540739" lon="126.927388"/>
      <trkpt lat="37.542385" lon="126.928485"/>
      <trkpt lat="37.543987" lon="126.929518"/>
      <trkpt lat="37.544726" lon="126.930009"/>
      <trkpt lat="37.54527" lon="126.930372"/>
      <trkpt lat="37.545549" lon="126.930554"/>
      <trkpt lat="37.545749" lon="126.930674"/>
      <trkpt lat="37.545959" lon="126.930787"/>
      <trkpt lat="37.546184" lon="126.930897"/>
      <trkpt lat="37.546404" lon="126.930992"/>
      <trkpt lat="37.546656" lon="126.931083"/>
      <trkpt lat="37.546857" lon="126.931155"/>
      <trkpt lat="37.547085" lon="126.931189"/>
      <trkpt lat="37.547228" lon="126.931232"/>
      <trkpt lat="37.547263" lon="126.931242"/>
      <trkpt lat="37.54748" lon="126.931307"/>
      <trkpt lat="37.547472" lon="126.931481"/>
      <trkpt lat="37.547463" lon="126.931961"/>
      <trkpt lat="37.547472" lon="126.931481"/>
      <trkpt lat="37.54748" lon="126.931307"/>
      <trkpt lat="37.547263" lon="126.931242"/>
      <trkpt lat="37.547228" lon="126.931232"/>
      <trkpt lat="37.547085" lon="126.931189"/>
      <trkpt lat="37.546857" lon="126.931155"/>
      <trkpt lat="37.546656" lon="126.931083"/>
      <trkpt lat="37.546404" lon="126.930992"/>
      <trkpt lat="37.546184" lon="126.930897"/>
      <trkpt lat="37.545959" lon="126.930787"/>
      <trkpt lat="37.545749" lon="126.930674"/>
      <trkpt lat="37.545549" lon="126.930554"/>
      <trkpt lat="37.54527" lon="126.930372"/>
      <trkpt lat="37.544726" lon="126.930009"/>
      <trkpt lat="37.543987" lon="126.929518"/>
      <trkpt lat="37.542385" lon="126.928485"/>
      <trkpt lat="37.540739" lon="126.927388"/>
      <trkpt lat="37.538198" lon="126.925718"/>
      <trkpt lat="37.53252" lon="126.921959"/>
      <trkpt lat="37.532315" lon="126.921831"/>
      <trkpt lat="37.532234" lon="126.921689"/>
      <trkpt lat="37.53219" lon="126.921601"/>
      <trkpt lat="37.532157" lon="126.921511"/>
      <trkpt lat="37.53214" lon="126.921452"/>
      <trkpt lat="37.532177" lon="126.921434"/>
      <trkpt lat="37.532185" lon="126.921253"/>
      <trkpt lat="37.532232" lon="126.921041"/>
      <trkpt lat="37.53239" lon="126.920456"/>
      <trkpt lat="37.532525" lon="126.919958"/>
      <trkpt lat="37.532779" lon="126.919067"/>
      <trkpt lat="37.53295" lon="126.918451"/>
      <trkpt lat="37.53301" lon="126.918244"/>
      <trkpt lat="37.533006" lon="126.918242"/>
      <trkpt lat="37.532975" lon="126.918224"/>
      <trkpt lat="37.532944" lon="126.918207"/>
      <trkpt lat="37.532969" lon="126.918094"/>
      <trkpt lat="37.532873" lon="126.917961"/>
      <trkpt lat="37.532241" lon="126.916961"/>
      <trkpt lat="37.531704" lon="126.916102"/>
      <trkpt lat="37.531624" lon="126.915983"/>
      <trkpt lat="37.531709" lon="126.915893"/>
      <trkpt lat="37.531861" lon="126.915737"/>
      <trkpt lat="37.531865" lon="126.915665"/>
      <trkpt lat="37.531859" lon="126.915603"/>
      <trkpt lat="37.53192" lon="126.915544"/>
      <trkpt lat="37.531907" lon="126.915491"/>
      <trkpt lat="37.531869" lon="126.915406"/>
      <trkpt lat="37.531853" lon="126.915369"/>
      <trkpt lat="37.531534" lon="126.914848"/>
      <trkpt lat="37.531529" lon="126.914841"/>
      <trkpt lat="37.531267" lon="126.914434"/>
      <trkpt lat="37.530948" lon="126.913916"/>
      <trkpt lat="37.530838" lon="126.913766"/>
      <trkpt lat="37.530786" lon="126.913687"/>
      <trkpt lat="37.530657" lon="126.91382"/>
      <trkpt lat="37.530506" lon="126.913965"/>
      <trkpt lat="37.530464" lon="126.913899"/>
      <trkpt lat="37.530439" lon="126.913896"/>
      <trkpt lat="37.53042" lon="126.913889"/>
      <trkpt lat="37.530401" lon="126.91386"/>
      <trkpt lat="37.530339" lon="126.913915"/>
      <trkpt lat="37.530185" lon="126.913667"/>
      <trkpt lat="37.530045" lon="126.913444"/>
      <trkpt lat="37.530001" lon="126.913374"/>
      <trkpt lat="37.529732" lon="126.912946"/>
      <trkpt lat="37.529566" lon="126.912682"/>
      <trkpt lat="37.529532" lon="126.912615"/>
      <trkpt lat="37.529504" lon="126.912518"/>
      <trkpt lat="37.529487" lon="126.912455"/>
      <trkpt lat="37.529427" lon="126.912479"/>
      <trkpt lat="37.529365" lon="126.912503"/>
      <trkpt lat="37.528996" lon="126.912648"/>
      <trkpt lat="37.528683" lon="126.91276"/>
      <trkpt lat="37.527919" lon="126.913109"/>
      <trkpt lat="37.527424" lon="126.913309"/>
      <trkpt lat="37.527125" lon="126.913474"/>
      <trkpt lat="37.526933" lon="126.913581"/>
      <trkpt lat="37.52678" lon="126.913673"/>
      <trkpt lat="37.526557" lon="126.913808"/>
      <trkpt lat="37.526078" lon="126.914182"/>
      <trkpt lat="37.525165" lon="126.914809"/>
      <trkpt lat="37.524722" lon="126.915113"/>
      <trkpt lat="37.523384" lon="126.916008"/>
      <trkpt lat="37.523425" lon="126.916095"/>
      <trkpt lat="37.523406" lon="126.916218"/>
      <trkpt lat="37.523471" lon="126.916313"/>
      <trkpt lat="37.523576" lon="126.916385"/>
      <trkpt lat="37.524007" lon="126.91716"/>
      <trkpt lat="37.524536" lon="126.918005"/>
      <trkpt lat="37.524449" lon="126.918082"/>
      <trkpt lat="37.524423" lon="126.918108"/>
      <trkpt lat="37.525439" lon="126.91975"/>
      <trkpt lat="37.525469" lon="126.919724"/>
      <trkpt lat="37.525631" lon="126.919984"/>
      <trkpt lat="37.525754" lon="126.920183"/>
      <trkpt lat="37.525878" lon="126.92038"/>
      <trkpt lat="37.527092" lon="126.922323"/>
      <trkpt lat="37.526838" lon="126.922643"/>
      <trkpt lat="37.526827" lon="126.922716"/>
      <trkpt lat="37.526665" lon="126.922476"/>
      <trkpt lat="37.526537" lon="126.922228"/>
      <trkpt lat="37.526462" lon="126.921905"/>
      <trkpt lat="37.526376" lon="126.921696"/>
      <trkpt lat="37.52619" lon="126.921481"/>
      <trkpt lat="37.526032" lon="126.921329"/>
      <trkpt lat="37.525963" lon="126.921263"/>
      <trkpt lat="37.525833" lon="126.921099"/>
      <trkpt lat="37.525788" lon="126.920966"/>
      <trkpt lat="37.525712" lon="126.921039"/>
      <trkpt lat="37.525492" lon="126.921511"/>
      <trkpt lat="37.525488" lon="126.921511"/>
      <trkpt lat="37.525256" lon="126.921137"/>
      <trkpt lat="37.525232" lon="126.921128"/>
      <trkpt lat="37.524729" lon="126.920313"/>
    </trkseg>
  </trk>
</gpx>
