<?xml version="1.0" encoding="UTF-8"?>
<gpx version="1.1" creator="allrunabout course-map builder" xmlns="http://www.topografix.com/GPX/1/1">
  <metadata>
    <name>incheon-songdo-half-marathon-2026</name>
    <desc>reconstructed · 대회 공식 홈페이지 '코스안내 및 교통통제안내'가 표로 적어둔 통제 지점 여섯 곳 — '인천대학교(정문도로)', '홈플러스 사거리(1차 반환)', '송도국제캠핑장 사거리', '해양극지연구소(2차 반환)', '잭니클라우스 사거리(출발/복귀)', '아트센터 사거리(3차 반환)'. 이 지명과 공식이 붙인 반환 순서(1·2·3차)만 사실로 취해 OSM 도로망 위에서 새로 이었다. 공식 코스맵 이미지의 선은 따라 그리지 않았다.</desc>
    <time>2026-08-30T00:00:00Z</time>
    <copyright author="OpenStreetMap contributors">
      <license>https://opendatacommons.org/licenses/odbl/</license>
    </copyright>
  </metadata>
  <trk>
    <name>incheon-songdo-half-marathon-2026</name>
    <trkseg>
      <trkpt lat="37.375032" lon="126.632627"/>
      <trkpt lat="37.375162" lon="126.632747"/>
      <trkpt lat="37.376303" lon="126.633799"/>
      <trkpt lat="37.376205" lon="126.633963"/>
      <trkpt lat="37.376011" lon="126.634287"/>
      <trkpt lat="37.376232" lon="126.634498"/>
      <trkpt lat="37.376065" lon="126.634776"/>
      <trkpt lat="37.375694" lon="126.635394"/>
      <trkpt lat="37.37559" lon="126.635554"/>
      <trkpt lat="37.375552" lon="126.635612"/>
      <trkpt lat="37.375575" lon="126.635655"/>
      <trkpt lat="37.375592" lon="126.635715"/>
      <trkpt lat="37.375603" lon="126.635809"/>
      <trkpt lat="37.375608" lon="126.636038"/>
      <trkpt lat="37.375614" lon="126.636159"/>
      <trkpt lat="37.375615" lon="126.63617"/>
      <trkpt lat="37.375618" lon="126.636266"/>
      <trkpt lat="37.375614" lon="126.636327"/>
      <trkpt lat="37.375601" lon="126.636388"/>
      <trkpt lat="37.375587" lon="126.636435"/>
      <trkpt lat="37.375539" lon="126.636534"/>
      <trkpt lat="37.375301" lon="126.636935"/>
      <trkpt lat="37.375996" lon="126.637586"/>
      <trkpt lat="37.376183" lon="126.637767"/>
      <trkpt lat="37.37629" lon="126.637861"/>
      <trkpt lat="37.376452" lon="126.637988"/>
      <trkpt lat="37.377526" lon="126.63873"/>
      <trkpt lat="37.377814" lon="126.638928"/>
      <trkpt lat="37.379456" lon="126.640104"/>
      <trkpt lat="37.380778" lon="126.641065"/>
      <trkpt lat="37.381526" lon="126.641585"/>
      <trkpt lat="37.382204" lon="126.64207"/>
      <trkpt lat="37.382492" lon="126.642364"/>
      <trkpt lat="37.382956" lon="126.64282"/>
      <trkpt lat="37.383391" lon="126.643262"/>
      <trkpt lat="37.383498" lon="126.643384"/>
      <trkpt lat="37.38363" lon="126.643489"/>
      <trkpt lat="37.38442" lon="126.644311"/>
      <trkpt lat="37.384824" lon="126.644727"/>
      <trkpt lat="37.385765" lon="126.64567"/>
      <trkpt lat="37.385834" lon="126.645743"/>
      <trkpt lat="37.385804" lon="126.645786"/>
      <trkpt lat="37.385775" lon="126.645846"/>
      <trkpt lat="37.385725" lon="126.645937"/>
      <trkpt lat="37.384374" lon="126.648174"/>
      <trkpt lat="37.381689" lon="126.652589"/>
      <trkpt lat="37.381671" lon="126.652618"/>
      <trkpt lat="37.380387" lon="126.654736"/>
      <trkpt lat="37.380489" lon="126.654817"/>
      <trkpt lat="37.380397" lon="126.654955"/>
      <trkpt lat="37.380257" lon="126.655164"/>
      <trkpt lat="37.380183" lon="126.655275"/>
      <trkpt lat="37.380183" lon="126.655394"/>
      <trkpt lat="37.38021" lon="126.655381"/>
      <trkpt lat="37.380383" lon="126.655447"/>
      <trkpt lat="37.380967" lon="126.656038"/>
      <trkpt lat="37.380383" lon="126.655447"/>
      <trkpt lat="37.38021" lon="126.655381"/>
      <trkpt lat="37.380183" lon="126.655394"/>
      <trkpt lat="37.380183" lon="126.655275"/>
      <trkpt lat="37.380257" lon="126.655164"/>
      <trkpt lat="37.380165" lon="126.655075"/>
      <trkpt lat="37.380067" lon="126.654977"/>
      <trkpt lat="37.379964" lon="126.654873"/>
      <trkpt lat="37.377302" lon="126.652307"/>
      <trkpt lat="37.373713" lon="126.648847"/>
      <trkpt lat="37.373467" lon="126.64861"/>
      <trkpt lat="37.372961" lon="126.648913"/>
      <trkpt lat="37.370988" lon="126.650431"/>
      <trkpt lat="37.370566" lon="126.650692"/>
      <trkpt lat="37.369824" lon="126.65121"/>
      <trkpt lat="37.369356" lon="126.651545"/>
      <trkpt lat="37.369019" lon="126.651862"/>
      <trkpt lat="37.368682" lon="126.652283"/>
      <trkpt lat="37.36804" lon="126.651671"/>
      <trkpt lat="37.366992" lon="126.650669"/>
      <trkpt lat="37.364817" lon="126.648663"/>
      <trkpt lat="37.363385" lon="126.64732"/>
      <trkpt lat="37.362685" lon="126.646654"/>
      <trkpt lat="37.362586" lon="126.646559"/>
      <trkpt lat="37.362494" lon="126.646708"/>
      <trkpt lat="37.362586" lon="126.646559"/>
      <trkpt lat="37.362685" lon="126.646654"/>
      <trkpt lat="37.363385" lon="126.64732"/>
      <trkpt lat="37.364817" lon="126.648663"/>
      <trkpt lat="37.366992" lon="126.650669"/>
      <trkpt lat="37.36725" lon="126.650233"/>
      <trkpt lat="37.367412" lon="126.650087"/>
      <trkpt lat="37.36861" lon="126.648148"/>
      <trkpt lat="37.369098" lon="126.647342"/>
      <trkpt lat="37.369533" lon="126.646624"/>
      <trkpt lat="37.369993" lon="126.645885"/>
      <trkpt lat="37.370272" lon="126.645521"/>
      <trkpt lat="37.370392" lon="126.645364"/>
      <trkpt lat="37.370505" lon="126.645182"/>
      <trkpt lat="37.370676" lon="126.645036"/>
      <trkpt lat="37.372012" lon="126.643696"/>
      <trkpt lat="37.372153" lon="126.643553"/>
      <trkpt lat="37.372366" lon="126.643328"/>
      <trkpt lat="37.373855" lon="126.641804"/>
      <trkpt lat="37.373949" lon="126.641689"/>
      <trkpt lat="37.374071" lon="126.641502"/>
      <trkpt lat="37.375066" lon="126.639863"/>
      <trkpt lat="37.375399" lon="126.639348"/>
      <trkpt lat="37.376084" lon="126.638182"/>
      <trkpt lat="37.376211" lon="126.637984"/>
      <trkpt lat="37.37629" lon="126.637861"/>
      <trkpt lat="37.376434" lon="126.637638"/>
      <trkpt lat="37.377423" lon="126.635982"/>
      <trkpt lat="37.377535" lon="126.635808"/>
      <trkpt lat="37.377574" lon="126.635748"/>
      <trkpt lat="37.37801" lon="126.635005"/>
      <trkpt lat="37.378014" lon="126.634997"/>
      <trkpt lat="37.378082" lon="126.634879"/>
      <trkpt lat="37.379327" lon="126.632845"/>
      <trkpt lat="37.379372" lon="126.632769"/>
      <trkpt lat="37.379463" lon="126.632616"/>
      <trkpt lat="37.379542" lon="126.632485"/>
      <trkpt lat="37.379609" lon="126.632376"/>
      <trkpt lat="37.379532" lon="126.632298"/>
      <trkpt lat="37.379453" lon="126.632207"/>
      <trkpt lat="37.379444" lon="126.632196"/>
      <trkpt lat="37.379437" lon="126.632187"/>
      <trkpt lat="37.37946" lon="126.632169"/>
      <trkpt lat="37.379635" lon="126.63188"/>
      <trkpt lat="37.379747" lon="126.631746"/>
      <trkpt lat="37.380469" lon="126.630555"/>
      <trkpt lat="37.380567" lon="126.630335"/>
      <trkpt lat="37.380763" lon="126.630011"/>
      <trkpt lat="37.380877" lon="126.629885"/>
      <trkpt lat="37.381773" lon="126.628399"/>
      <trkpt lat="37.381874" lon="126.628185"/>
      <trkpt lat="37.382372" lon="126.627364"/>
      <trkpt lat="37.382429" lon="126.62727"/>
      <trkpt lat="37.382373" lon="126.627263"/>
      <trkpt lat="37.382302" lon="126.627161"/>
      <trkpt lat="37.382216" lon="126.626972"/>
      <trkpt lat="37.382135" lon="126.626794"/>
      <trkpt lat="37.382055" lon="126.626676"/>
      <trkpt lat="37.381993" lon="126.626598"/>
      <trkpt lat="37.381908" lon="126.626522"/>
      <trkpt lat="37.381836" lon="126.626477"/>
      <trkpt lat="37.38175" lon="126.626437"/>
      <trkpt lat="37.381624" lon="126.626408"/>
      <trkpt lat="37.3815" lon="126.626358"/>
      <trkpt lat="37.381363" lon="126.626271"/>
      <trkpt lat="37.381289" lon="126.626207"/>
      <trkpt lat="37.381219" lon="126.626141"/>
      <trkpt lat="37.381138" lon="126.626054"/>
      <trkpt lat="37.381061" lon="126.625941"/>
      <trkpt lat="37.381029" lon="126.625883"/>
      <trkpt lat="37.380969" lon="126.625796"/>
      <trkpt lat="37.380907" lon="126.625734"/>
      <trkpt lat="37.380853" lon="126.625698"/>
      <trkpt lat="37.380797" lon="126.625667"/>
      <trkpt lat="37.380712" lon="126.625634"/>
      <trkpt lat="37.38063" lon="126.625621"/>
      <trkpt lat="37.38057" lon="126.625622"/>
      <trkpt lat="37.380488" lon="126.625638"/>
      <trkpt lat="37.380418" lon="126.625665"/>
      <trkpt lat="37.380361" lon="126.625596"/>
      <trkpt lat="37.380316" lon="126.625551"/>
      <trkpt lat="37.38025" lon="126.625479"/>
      <trkpt lat="37.380146" lon="126.625384"/>
      <trkpt lat="37.380049" lon="126.625309"/>
      <trkpt lat="37.379949" lon="126.625242"/>
      <trkpt lat="37.37977" lon="126.62524"/>
      <trkpt lat="37.37978" lon="126.625021"/>
      <trkpt lat="37.379782" lon="126.624798"/>
      <trkpt lat="37.379782" lon="126.624727"/>
      <trkpt lat="37.379795" lon="126.624556"/>
      <trkpt lat="37.379814" lon="126.624434"/>
      <trkpt lat="37.379821" lon="126.624386"/>
      <trkpt lat="37.379822" lon="126.62438"/>
      <trkpt lat="37.379821" lon="126.624386"/>
      <trkpt lat="37.379814" lon="126.624434"/>
      <trkpt lat="37.379795" lon="126.624556"/>
      <trkpt lat="37.379782" lon="126.624727"/>
      <trkpt lat="37.379782" lon="126.624798"/>
      <trkpt lat="37.37978" lon="126.625021"/>
      <trkpt lat="37.37977" lon="126.62524"/>
      <trkpt lat="37.379949" lon="126.625242"/>
      <trkpt lat="37.380049" lon="126.625309"/>
      <trkpt lat="37.380146" lon="126.625384"/>
      <trkpt lat="37.38025" lon="126.625479"/>
      <trkpt lat="37.380316" lon="126.625551"/>
      <trkpt lat="37.380361" lon="126.625596"/>
      <trkpt lat="37.380418" lon="126.625665"/>
      <trkpt lat="37.380488" lon="126.625638"/>
      <trkpt lat="37.38057" lon="126.625622"/>
      <trkpt lat="37.38063" lon="126.625621"/>
      <trkpt lat="37.380712" lon="126.625634"/>
      <trkpt lat="37.380797" lon="126.625667"/>
      <trkpt lat="37.380853" lon="126.625698"/>
      <trkpt lat="37.380907" lon="126.625734"/>
      <trkpt lat="37.380969" lon="126.625796"/>
      <trkpt lat="37.381029" lon="126.625883"/>
      <trkpt lat="37.381061" lon="126.625941"/>
      <trkpt lat="37.381138" lon="126.626054"/>
      <trkpt lat="37.381219" lon="126.626141"/>
      <trkpt lat="37.381289" lon="126.626207"/>
      <trkpt lat="37.381363" lon="126.626271"/>
      <trkpt lat="37.3815" lon="126.626358"/>
      <trkpt lat="37.381624" lon="126.626408"/>
      <trkpt lat="37.38175" lon="126.626437"/>
      <trkpt lat="37.381836" lon="126.626477"/>
      <trkpt lat="37.381908" lon="126.626522"/>
      <trkpt lat="37.381993" lon="126.626598"/>
      <trkpt lat="37.382055" lon="126.626676"/>
      <trkpt lat="37.382135" lon="126.626794"/>
      <trkpt lat="37.382216" lon="126.626972"/>
      <trkpt lat="37.382302" lon="126.627161"/>
      <trkpt lat="37.382373" lon="126.627263"/>
      <trkpt lat="37.382429" lon="126.62727"/>
      <trkpt lat="37.382498" lon="126.627155"/>
      <trkpt lat="37.384736" lon="126.62346"/>
      <trkpt lat="37.384753" lon="126.623474"/>
      <trkpt lat="37.38477" lon="126.623489"/>
      <trkpt lat="37.384808" lon="126.623527"/>
      <trkpt lat="37.384836" lon="126.623483"/>
      <trkpt lat="37.385956" lon="126.621616"/>
      <trkpt lat="37.38601" lon="126.621668"/>
      <trkpt lat="37.386062" lon="126.621718"/>
      <trkpt lat="37.386737" lon="126.622368"/>
      <trkpt lat="37.386818" lon="126.622446"/>
      <trkpt lat="37.392425" lon="126.627838"/>
      <trkpt lat="37.392551" lon="126.627916"/>
      <trkpt lat="37.392666" lon="126.627959"/>
      <trkpt lat="37.392961" lon="126.628055"/>
      <trkpt lat="37.393166" lon="126.628097"/>
      <trkpt lat="37.393146" lon="126.628214"/>
      <trkpt lat="37.393437" lon="126.628283"/>
      <trkpt lat="37.393528" lon="126.628347"/>
    </trkseg>
  </trk>
</gpx>
