<?xml version="1.0" encoding="UTF-8"?>
<gpx version="1.1" creator="allrunabout course-map builder" xmlns="http://www.topografix.com/GPX/1/1">
  <metadata>
    <name>siheung-half-marathon-2026</name>
    <desc>reconstructed · 시흥시 공식 대회 안내의 코스 서술 — '한국공학대학교 제2캠퍼스 출발 → 시화방조제 왕복'. 출발지와 방조제 위 도로(대부황금로)만 취해 OSM 보행 도로망 위에서 새로 이었다. 공식 코스맵 이미지는 따라 그리지 않았다. 방조제는 분기 없는 외길이라 '출발점에서 몇 km' 가 한 점으로 정해진다 — 반환점은 그 성질을 이용해 편도 10.55km 에서 잘랐다(근거는 caveat).</desc>
    <time>2026-08-24T00:00:00Z</time>
    <copyright author="OpenStreetMap contributors">
      <license>https://opendatacommons.org/licenses/odbl/</license>
    </copyright>
  </metadata>
  <trk>
    <name>siheung-half-marathon-2026</name>
    <trkseg>
      <trkpt lat="37.327872" lon="126.689441"/>
      <trkpt lat="37.328298" lon="126.689853"/>
      <trkpt lat="37.328322" lon="126.689856"/>
      <trkpt lat="37.328344" lon="126.689847"/>
      <trkpt lat="37.328364" lon="126.689826"/>
      <trkpt lat="37.328975" lon="126.688822"/>
      <trkpt lat="37.328149" lon="126.688024"/>
      <trkpt lat="37.328781" lon="126.686993"/>
      <trkpt lat="37.328729" lon="126.68694"/>
      <trkpt lat="37.328714" lon="126.686927"/>
      <trkpt lat="37.328725" lon="126.686904"/>
      <trkpt lat="37.32873" lon="126.686872"/>
      <trkpt lat="37.328729" lon="126.686841"/>
      <trkpt lat="37.328724" lon="126.686814"/>
      <trkpt lat="37.328713" lon="126.686793"/>
      <trkpt lat="37.328694" lon="126.68677"/>
      <trkpt lat="37.328705" lon="126.686752"/>
      <trkpt lat="37.328756" lon="126.686661"/>
      <trkpt lat="37.328792" lon="126.686597"/>
      <trkpt lat="37.328809" lon="126.686565"/>
      <trkpt lat="37.328658" lon="126.686426"/>
      <trkpt lat="37.328394" lon="126.686175"/>
      <trkpt lat="37.32838" lon="126.68616"/>
      <trkpt lat="37.328373" lon="126.686139"/>
      <trkpt lat="37.328369" lon="126.686108"/>
      <trkpt lat="37.328368" lon="126.686077"/>
      <trkpt lat="37.32837" lon="126.686052"/>
      <trkpt lat="37.328383" lon="126.686023"/>
      <trkpt lat="37.328844" lon="126.685265"/>
      <trkpt lat="37.328969" lon="126.685063"/>
      <trkpt lat="37.328953" lon="126.685046"/>
      <trkpt lat="37.328906" lon="126.684997"/>
      <trkpt lat="37.328856" lon="126.684944"/>
      <trkpt lat="37.328833" lon="126.684919"/>
      <trkpt lat="37.32886" lon="126.684884"/>
      <trkpt lat="37.32908" lon="126.684532"/>
      <trkpt lat="37.329187" lon="126.684422"/>
      <trkpt lat="37.329479" lon="126.683945"/>
      <trkpt lat="37.329542" lon="126.683792"/>
      <trkpt lat="37.329877" lon="126.683244"/>
      <trkpt lat="37.32989" lon="126.6832"/>
      <trkpt lat="37.329888" lon="126.683158"/>
      <trkpt lat="37.32988" lon="126.683127"/>
      <trkpt lat="37.329867" lon="126.683096"/>
      <trkpt lat="37.329888" lon="126.683076"/>
      <trkpt lat="37.329928" lon="126.683025"/>
      <trkpt lat="37.329077" lon="126.680651"/>
      <trkpt lat="37.329056" lon="126.680572"/>
      <trkpt lat="37.329104" lon="126.680546"/>
      <trkpt lat="37.329124" lon="126.680535"/>
      <trkpt lat="37.329097" lon="126.680452"/>
      <trkpt lat="37.329088" lon="126.680416"/>
      <trkpt lat="37.329088" lon="126.680378"/>
      <trkpt lat="37.329097" lon="126.680342"/>
      <trkpt lat="37.329111" lon="126.680316"/>
      <trkpt lat="37.329131" lon="126.680298"/>
      <trkpt lat="37.32915" lon="126.680289"/>
      <trkpt lat="37.329142" lon="126.680265"/>
      <trkpt lat="37.329094" lon="126.6801"/>
      <trkpt lat="37.329144" lon="126.680073"/>
      <trkpt lat="37.329457" lon="126.679917"/>
      <trkpt lat="37.33087" lon="126.679244"/>
      <trkpt lat="37.331242" lon="126.679057"/>
      <trkpt lat="37.331337" lon="126.679009"/>
      <trkpt lat="37.331422" lon="126.678832"/>
      <trkpt lat="37.331437" lon="126.678785"/>
      <trkpt lat="37.331471" lon="126.678675"/>
      <trkpt lat="37.331483" lon="126.678428"/>
      <trkpt lat="37.330549" lon="126.675158"/>
      <trkpt lat="37.32977" lon="126.672384"/>
      <trkpt lat="37.329642" lon="126.67193"/>
      <trkpt lat="37.329465" lon="126.671279"/>
      <trkpt lat="37.329286" lon="126.670621"/>
      <trkpt lat="37.328502" lon="126.667617"/>
      <trkpt lat="37.327351" lon="126.66343"/>
      <trkpt lat="37.326252" lon="126.65949"/>
      <trkpt lat="37.325688" lon="126.657388"/>
      <trkpt lat="37.325423" lon="126.656438"/>
      <trkpt lat="37.325213" lon="126.655688"/>
      <trkpt lat="37.32507" lon="126.655232"/>
      <trkpt lat="37.32494" lon="126.654766"/>
      <trkpt lat="37.32476" lon="126.654098"/>
      <trkpt lat="37.32297" lon="126.647712"/>
      <trkpt lat="37.320823" lon="126.639961"/>
      <trkpt lat="37.3197" lon="126.635885"/>
      <trkpt lat="37.319122" lon="126.633833"/>
      <trkpt lat="37.318709" lon="126.632313"/>
      <trkpt lat="37.317967" lon="126.629649"/>
      <trkpt lat="37.317504" lon="126.628024"/>
      <trkpt lat="37.316968" lon="126.62609"/>
      <trkpt lat="37.316224" lon="126.623398"/>
      <trkpt lat="37.315497" lon="126.620857"/>
      <trkpt lat="37.315264" lon="126.619664"/>
      <trkpt lat="37.315121" lon="126.61853"/>
      <trkpt lat="37.314996" lon="126.617323"/>
      <trkpt lat="37.314902" lon="126.616628"/>
      <trkpt lat="37.314784" lon="126.616036"/>
      <trkpt lat="37.314463" lon="126.615086"/>
      <trkpt lat="37.314315" lon="126.614743"/>
      <trkpt lat="37.31281" lon="126.610964"/>
      <trkpt lat="37.312701" lon="126.610691"/>
      <trkpt lat="37.312423" lon="126.610018"/>
      <trkpt lat="37.312055" lon="126.609262"/>
      <trkpt lat="37.311364" lon="126.608244"/>
      <trkpt lat="37.311256" lon="126.608124"/>
      <trkpt lat="37.310333" lon="126.607159"/>
      <trkpt lat="37.310217" lon="126.607005"/>
      <trkpt lat="37.309649" lon="126.606325"/>
      <trkpt lat="37.30889" lon="126.605213"/>
      <trkpt lat="37.308771" lon="126.605039"/>
      <trkpt lat="37.308638" lon="126.604826"/>
      <trkpt lat="37.308346" lon="126.604281"/>
      <trkpt lat="37.308121" lon="126.603907"/>
      <trkpt lat="37.307854" lon="126.603403"/>
      <trkpt lat="37.306403" lon="126.600928"/>
      <trkpt lat="37.304513" lon="126.597665"/>
      <trkpt lat="37.303442" lon="126.595841"/>
      <trkpt lat="37.301844" lon="126.593101"/>
      <trkpt lat="37.299519" lon="126.589127"/>
      <trkpt lat="37.298544" lon="126.587502"/>
      <trkpt lat="37.29788590580209" lon="126.58637759707796"/>
      <trkpt lat="37.298544" lon="126.587502"/>
      <trkpt lat="37.299519" lon="126.589127"/>
      <trkpt lat="37.301844" lon="126.593101"/>
      <trkpt lat="37.303442" lon="126.595841"/>
      <trkpt lat="37.304513" lon="126.597665"/>
      <trkpt lat="37.306403" lon="126.600928"/>
      <trkpt lat="37.307854" lon="126.603403"/>
      <trkpt lat="37.308121" lon="126.603907"/>
      <trkpt lat="37.308346" lon="126.604281"/>
      <trkpt lat="37.308638" lon="126.604826"/>
      <trkpt lat="37.308771" lon="126.605039"/>
      <trkpt lat="37.30889" lon="126.605213"/>
      <trkpt lat="37.309649" lon="126.606325"/>
      <trkpt lat="37.310217" lon="126.607005"/>
      <trkpt lat="37.310333" lon="126.607159"/>
      <trkpt lat="37.311256" lon="126.608124"/>
      <trkpt lat="37.311364" lon="126.608244"/>
      <trkpt lat="37.312055" lon="126.609262"/>
      <trkpt lat="37.312423" lon="126.610018"/>
      <trkpt lat="37.312701" lon="126.610691"/>
      <trkpt lat="37.31281" lon="126.610964"/>
      <trkpt lat="37.314315" lon="126.614743"/>
      <trkpt lat="37.314463" lon="126.615086"/>
      <trkpt lat="37.314784" lon="126.616036"/>
      <trkpt lat="37.314902" lon="126.616628"/>
      <trkpt lat="37.314996" lon="126.617323"/>
      <trkpt lat="37.315121" lon="126.61853"/>
      <trkpt lat="37.315264" lon="126.619664"/>
      <trkpt lat="37.315497" lon="126.620857"/>
      <trkpt lat="37.316224" lon="126.623398"/>
      <trkpt lat="37.316968" lon="126.62609"/>
      <trkpt lat="37.317504" lon="126.628024"/>
      <trkpt lat="37.317967" lon="126.629649"/>
      <trkpt lat="37.318709" lon="126.632313"/>
      <trkpt lat="37.319122" lon="126.633833"/>
      <trkpt lat="37.3197" lon="126.635885"/>
      <trkpt lat="37.320823" lon="126.639961"/>
      <trkpt lat="37.32297" lon="126.647712"/>
      <trkpt lat="37.32476" lon="126.654098"/>
      <trkpt lat="37.32494" lon="126.654766"/>
      <trkpt lat="37.32507" lon="126.655232"/>
      <trkpt lat="37.325213" lon="126.655688"/>
      <trkpt lat="37.325423" lon="126.656438"/>
      <trkpt lat="37.325688" lon="126.657388"/>
      <trkpt lat="37.326252" lon="126.65949"/>
      <trkpt lat="37.327351" lon="126.66343"/>
      <trkpt lat="37.328502" lon="126.667617"/>
      <trkpt lat="37.329286" lon="126.670621"/>
      <trkpt lat="37.329465" lon="126.671279"/>
      <trkpt lat="37.329642" lon="126.67193"/>
      <trkpt lat="37.32977" lon="126.672384"/>
      <trkpt lat="37.330549" lon="126.675158"/>
      <trkpt lat="37.331483" lon="126.678428"/>
      <trkpt lat="37.331471" lon="126.678675"/>
      <trkpt lat="37.331437" lon="126.678785"/>
      <trkpt lat="37.331422" lon="126.678832"/>
      <trkpt lat="37.331337" lon="126.679009"/>
      <trkpt lat="37.331242" lon="126.679057"/>
      <trkpt lat="37.33087" lon="126.679244"/>
      <trkpt lat="37.329457" lon="126.679917"/>
      <trkpt lat="37.329144" lon="126.680073"/>
      <trkpt lat="37.329094" lon="126.6801"/>
      <trkpt lat="37.329142" lon="126.680265"/>
      <trkpt lat="37.32915" lon="126.680289"/>
      <trkpt lat="37.329131" lon="126.680298"/>
      <trkpt lat="37.329111" lon="126.680316"/>
      <trkpt lat="37.329097" lon="126.680342"/>
      <trkpt lat="37.329088" lon="126.680378"/>
      <trkpt lat="37.329088" lon="126.680416"/>
      <trkpt lat="37.329097" lon="126.680452"/>
      <trkpt lat="37.329124" lon="126.680535"/>
      <trkpt lat="37.329104" lon="126.680546"/>
      <trkpt lat="37.329056" lon="126.680572"/>
      <trkpt lat="37.329077" lon="126.680651"/>
      <trkpt lat="37.329928" lon="126.683025"/>
      <trkpt lat="37.329888" lon="126.683076"/>
      <trkpt lat="37.329867" lon="126.683096"/>
      <trkpt lat="37.32988" lon="126.683127"/>
      <trkpt lat="37.329888" lon="126.683158"/>
      <trkpt lat="37.32989" lon="126.6832"/>
      <trkpt lat="37.329877" lon="126.683244"/>
      <trkpt lat="37.329542" lon="126.683792"/>
      <trkpt lat="37.329479" lon="126.683945"/>
      <trkpt lat="37.329187" lon="126.684422"/>
      <trkpt lat="37.32908" lon="126.684532"/>
      <trkpt lat="37.32886" lon="126.684884"/>
      <trkpt lat="37.328833" lon="126.684919"/>
      <trkpt lat="37.328856" lon="126.684944"/>
      <trkpt lat="37.328906" lon="126.684997"/>
      <trkpt lat="37.328953" lon="126.685046"/>
      <trkpt lat="37.328969" lon="126.685063"/>
      <trkpt lat="37.328844" lon="126.685265"/>
      <trkpt lat="37.328383" lon="126.686023"/>
      <trkpt lat="37.32837" lon="126.686052"/>
      <trkpt lat="37.328368" lon="126.686077"/>
      <trkpt lat="37.328369" lon="126.686108"/>
      <trkpt lat="37.328373" lon="126.686139"/>
      <trkpt lat="37.32838" lon="126.68616"/>
      <trkpt lat="37.328394" lon="126.686175"/>
      <trkpt lat="37.328658" lon="126.686426"/>
      <trkpt lat="37.328809" lon="126.686565"/>
      <trkpt lat="37.328792" lon="126.686597"/>
      <trkpt lat="37.328756" lon="126.686661"/>
      <trkpt lat="37.328705" lon="126.686752"/>
      <trkpt lat="37.328694" lon="126.68677"/>
      <trkpt lat="37.328713" lon="126.686793"/>
      <trkpt lat="37.328724" lon="126.686814"/>
      <trkpt lat="37.328729" lon="126.686841"/>
      <trkpt lat="37.32873" lon="126.686872"/>
      <trkpt lat="37.328725" lon="126.686904"/>
      <trkpt lat="37.328714" lon="126.686927"/>
      <trkpt lat="37.328729" lon="126.68694"/>
      <trkpt lat="37.328781" lon="126.686993"/>
      <trkpt lat="37.328149" lon="126.688024"/>
      <trkpt lat="37.328975" lon="126.688822"/>
      <trkpt lat="37.328364" lon="126.689826"/>
      <trkpt lat="37.328344" lon="126.689847"/>
      <trkpt lat="37.328322" lon="126.689856"/>
      <trkpt lat="37.328298" lon="126.689853"/>
      <trkpt lat="37.327872" lon="126.689441"/>
    </trkseg>
  </trk>
</gpx>
